HAWK-5A                 
1 52757U 22057AB  26179.91036855  .00017949  00000+0  30186-3 0  9994
2 52757  97.6613 339.5185 0004700  39.1405 321.0186 15.51799124228161
HAWK-6B                 
1 55324U 23011A   26179.72412756  .00004042  00000+0  17623-3 0  9996
2 55324  40.4992 284.7778 0001496 129.5001 230.5941 15.23031522189602
HAWK-6C                 
1 55326U 23011C   26179.72349800  .00003881  00000+0  16956-3 0  9995
2 55326  40.4978 281.6190 0002050 103.7228 256.3810 15.23029425189615
HAWK-6A                 
1 55327U 23011D   26179.72353516  .00004128  00000+0  17982-3 0  9990
2 55327  40.4989 283.2445 0001598  99.1101 260.9890 15.23029986189614
HAWK-7A                 
1 56191U 23054P   26179.96810254  .00005347  00000+0  20152-3 0  9997
2 56191  97.2692  67.0062 0003319  30.0514 330.0916 15.27479262178822
HAWK-7B                 
1 56193U 23054R   26179.77150354  .00005278  00000+0  19899-3 0  9995
2 56193  97.2721  65.0826 0003004  47.9436 312.2059 15.27475708178791
HAWK-7C                 
1 56200U 23054Y   26179.77138662  .00005226  00000+0  19707-3 0  9993
2 56200  97.2698  65.8476 0002780  37.7950 322.3485 15.27475476178797
