OBJECT_NAME,OBJECT_ID,EPOCH,MEAN_MOTION,ECCENTRICITY,INCLINATION,RA_OF_ASC_NODE,ARG_OF_PERICENTER,MEAN_ANOMALY,EPHEMERIS_TYPE,CLASSIFICATION_TYPE,NORAD_CAT_ID,ELEMENT_SET_NO,REV_AT_EPOCH,BSTAR,MEAN_MOTION_DOT,MEAN_MOTION_DDOT
HAWK-5A,2022-057AB,2026-06-28T21:50:55.842720,15.51799124,.00047006,97.6613,339.5185,39.1405,321.0186,0,U,52757,999,22816,.30185554E-3,.17949E-3,0
HAWK-6B,2023-011A,2026-06-28T17:22:44.621184,15.23031522,.00014966,40.4992,284.7778,129.5001,230.5941,0,U,55324,999,18960,.17623191E-3,.4042E-4,0
HAWK-6C,2023-011C,2026-06-28T17:21:50.227200,15.23029425,.00020507,40.4978,281.6190,103.7228,256.3810,0,U,55326,999,18961,.16955568E-3,.3881E-4,0
HAWK-6A,2023-011D,2026-06-28T17:21:53.437824,15.23029986,.00015982,40.4989,283.2445,99.1101,260.9890,0,U,55327,999,18961,.17981638E-3,.4128E-4,0
HAWK-7A,2023-054P,2026-06-28T23:14:04.059456,15.27479262,.00033194,97.2692,67.0062,30.0514,330.0916,0,U,56191,999,17882,.20152316E-3,.5347E-4,0
HAWK-7B,2023-054R,2026-06-28T18:30:57.905856,15.27475708,.00030042,97.2721,65.0826,47.9436,312.2059,0,U,56193,999,17879,.19898854E-3,.5278E-4,0
HAWK-7C,2023-054Y,2026-06-28T18:30:47.803968,15.27475476,.00027807,97.2698,65.8476,37.7950,322.3485,0,U,56200,999,17879,.19706713E-3,.5226E-4,0
